NUVIEW BRAVO            
1 62457U 24252D   26171.37551706 -.00000219  00000+0  00000+0 0  9991
2 62457   0.0743 146.5525 0002084 337.9215 196.1742  1.00271802  3826
THURAYA-4               
1 62483U 25001A   26170.89350227  .00000134  00000+0  00000+0 0  9999
2 62483   0.0260  67.3649 0000129 235.0170 331.6905  1.00272730  4203
SHIJIAN-25 (SJ-25)      
1 62485U 25002A   26171.44912980 -.00000357  00000+0  00000+0 0  9992
2 62485   5.1219  61.1498 0052012 173.4030 322.9628  1.00261664  5397
TJS-14                  
1 62804U 25017A   26172.53628539  .00000115  00000+0  00000+0 0  9999
2 62804   0.7716 295.9577 0000830 276.0073 269.2860  1.00276757  5310
SPAINSAT NG I           
1 62852U 25021A   26171.03045817  .00000146  00000+0  00000+0 0  9997
2 62852   0.0178   1.7789 0000223 177.4851 128.9379  1.00271397  4017
QZS-6 (MICHIBIKI-6)     
1 62876U 25023A   26171.40996537 -.00000237  00000+0  00000+0 0  9992
2 62876   0.0614  73.8005 0001896  19.1523  53.7613  1.00270060  4982
ZHONGXING-10R           
1 63075U 25036A   26171.41386541 -.00000356  00000+0  00000+0 0  9999
2 63075   0.0045 296.2419 0003589 202.1815  29.7251  1.00270500  4992
TJS-15                  
1 63157U 25045A   26171.33939558 -.00000269  00000+0  00000+0 0  9996
2 63157   0.2944  85.4731 0004649 299.0125 100.6355  1.00270564  4797
TIANLIAN 2-04           
1 63361U 25062A   26172.40589769 -.00000136  00000+0  00000+0 0  9999
2 63361   4.3626 274.3783 0031483  10.3849 211.0218  1.00272079  4647
TJS-16                  
1 63397U 25064A   26171.46202840 -.00000110  00000+0  00000+0 0  9999
2 63397   1.1077  81.4457 0003312 292.6528 221.5121  1.00271697  4425
TJS-17                  
1 63524U 25073A   26171.49140550 -.00000074  00000+0  00000+0 0  9992
2 63524   1.0737  82.6749 0002059 302.0289 225.4498  1.00272670  4324
TIANLIAN 2-05           
1 63662U 25084A   26172.53663207  .00000123  00000+0  00000+0 0  9996
2 63662   4.4391 279.7867 0003257 150.3286  53.1495  1.00273080  4422
TJS-19                  
1 63924U 25097A   26171.49180730 -.00000281  00000+0  00000+0 0  9996
2 63924   3.2800 317.5119 0002894 246.8383  22.5951  1.00275639  4172
SXM-10                  
1 64290U 25122A   26171.36544730 -.00000022  00000+0  00000+0 0  9995
2 64290   0.0222  37.6064 0001887 326.2448 280.1173  1.00272116  3711
COSMOS 2589             
1 64467U 25131A   26171.26869691 -.00000296  00000+0  00000+0 0  9999
2 64467   0.0427  87.6996 0000241  16.8448 358.6431  1.00271371  3594
CHINASAT 9C             
1 64470U 25132A   26171.33878891 -.00000252  00000+0  00000+0 0  9996
2 64470   0.0131  73.6837 0003074  13.1824  35.8296  1.00273457  4180
MTG-S1                  
1 64723U 25143A   26171.39155049 -.00000005  00000+0  00000+0 0  9994
2 64723   0.6001 339.7327 0000829 294.1194 133.2187  1.00399694  3452
DROR 1                  
1 64784U 25148A   26171.39120382 -.00000039  00000+0  00000+0 0  9995
2 64784   0.0439  72.5487 0002642 318.5944  14.2794  1.00271314  3322
SHIYAN-29               
1 65486U 25196A   26171.05415719 -.00000285  00000+0  00000+0 0  9995
2 65486  28.8247  18.4992 0012539 177.1148 186.8195  1.00284739  2918
NUSANTARA LIMA (NUSANT*)
1 65588U 25205A   26171.34303559 -.00000362  00000+0  00000+0 0  9995
2 65588   0.0404 170.4876 0000107 328.8729   5.5338  1.00270872  2757
TJS-20                  
1 66142U 25238A   26171.01460796  .00000019  00000+0  00000+0 0  9997
2 66142   5.4622 299.5493 0004189 158.1883 238.2077  1.00267297  2361
CMS-03 (GSAT-7R)        
1 66311U 25249B   26171.40667204 -.00000081  00000+0  00000+0 0  9993
2 66311   0.0166  80.7193 0001691   2.1969  46.0837  1.00271464  2380
VIASAT-3 F2             
1 66454U 25261A   26170.87735519 -.00000239  00000+0  00000+0 0  9995
2 66454   0.0363 174.4747 0000047 277.7870  52.7047  1.00270370  2829
SHIJIAN-28 (SJ-28)      
1 66549U 25277A   26171.47940817 -.00000364  00000+0  00000+0 0  9992
2 66549   4.5287 272.0817 0001125  39.3140 246.6563  1.00276035  2181
TJS-22                  
1 66990U 25290A   26171.86576182 -.00000011  00000+0  00000+0 0  9999
2 66990   1.5201 286.6283 0001975 330.4567  30.1809  1.00274221  2064
TJS-23                  
1 67226U 25306A   26170.59511561  .00000010  00000+0  00000+0 0  9997
2 67226   5.5825 297.4740 0004725 175.6001 184.5544  1.00266223  1915
FENGYUN 4C              
1 67246U 25312A   26172.20183742 -.00000325  00000+0  00000+0 0  9992
2 67246   0.0446 152.2345 0000316  41.1577 281.6598  1.00270515  1829
SHIJIAN-29A (SJ-29A)    
1 67302U 25315A   26171.40649869 -.00000072  00000+0  00000+0 0  9995
2 67302   3.4070  95.0285 0003269  23.8001   9.2958  1.00270205  1659
SHIJIAN-29B (SJ-29B)    
1 67403U 25315C   26171.12134347 -.00000073  00000+0  00000+0 0  9997
2 67403   3.4052  95.0272 0004057  34.8918 255.3079  1.00270047  1711
ELEKTRO-L 5             
1 67756U 26028A   26171.04359116 -.00000103  00000+0  00000+0 0  9998
2 67756   0.2466 312.6978 0001749 180.6855 226.6194  1.00272291  1286
JAM-E JAM 1             
1 67757U 26028B   26170.61453200  .00000150  00000+0  00000+0 0  9991
2 67757   0.2541 303.2318 0001101 292.6751 287.1607  1.00277035  1143
